SL-3 R/B                
1 19046U 88032B   26076.23756515  .00004172  00000+0  19545-3 0  9996
2 19046  97.5196  59.4621 0025076 203.8793 156.1281 15.19997142 53255
SL-16 R/B               
1 19120U 88039B   26076.16749537  .00000082  00000+0  61701-4 0  9992
2 19120  71.0146  52.7342 0023149 323.5040  36.4507 14.19617444959440
COSMOS 1953             
1 19210U 88050A   26076.21918492  .00006013  00000+0  21416-3 0  9997
2 19210  82.5102 150.6748 0012666  98.9424 261.3250 15.28653980 38930
SL-8 R/B                
1 19257U 88053B   26076.16540101  .00000268  00000+0  95376-4 0  9996
2 19257  74.0451  98.6853 0021534 276.9982 145.3337 14.38920585977671
COSMOS 1975             
1 19573U 88093A   26076.12425647  .00004627  00000+0  16695-3 0  9993
2 19573  82.5171 110.2205 0012790 138.7497 221.4711 15.28173282 20548
SL-14 R/B               
1 19574U 88093B   26076.12889076  .00000526  00000+0  57695-4 0  9994
2 19574  82.5320  35.0604 0021178  17.8827 352.9720 14.85665856  2125
SL-16 R/B               
1 19650U 88102B   26076.18031316  .00000042  00000+0  45292-4 0  9995
2 19650  70.9991 135.7369 0014481 349.8844  10.1986 14.16155890927957
INTERCOSMOS 24          
1 20261U 89080A   26076.11011546  .00000586  00000+0  17432-3 0  9994
2 20261  82.6018  99.5709 1186668 275.5791  71.1422 12.59568937667730
SL-14 R/B               
1 20262U 89080C   26075.99765894  .00000479  00000+0  13784-3 0  9999
2 20262  82.5969 168.4966 1230746 168.0517 195.2866 12.50502046661065
DELTA 1 R/B             
1 20323U 89089B   26076.27714782  .00000350  00000+0  94845-4 0  9994
2 20323  97.0700 282.5088 0070714  98.4504 262.4718 14.50669601896839
ARIANE 40 R/B           
1 20443U 90005H   26076.17957554  .00000243  00000+0  90909-4 0  9990
2 20443  98.3066 136.6173 0010313 175.6987 184.4292 14.39875475893884
DELTA 2 R/B(1)          
1 20453U 90008B   26075.49452640  .00055596  00000+0  63370-3 0  9996
2 20453  35.6034 130.1631 0082949 321.5693  37.9155 15.56890569927195
